<?xml version="1.0"?>
<seiscomp xmlns="http://geofon.gfz-potsdam.de/ns/seiscomp3-schema/0.3" version="0.3">
  <EventParameters>
    <pick publicID="20100225.040939.61-NZ.DSZ.10.HHZ">
      <time>
        <value>2010-02-25T04:09:39.618388Z</value>
      </time>
      <waveformID networkCode="NZ" stationCode="DSZ" locationCode="10" channelCode="HHZ"/>
      <phaseHint>P</phaseHint>
      <evaluationMode>automatic</evaluationMode>
      <creationInfo>
        <agencyID>GNS</agencyID>
        <author>scautopick@screplay1.gns.cri.nz</author>
        <creationTime>2011-01-26T02:52:15.898853Z</creationTime>
      </creationInfo>
    </pick>
    <pick publicID="20100225.040944.86-NZ.NNZ.10.HHZ">
      <time>
        <value>2010-02-25T04:09:44.866852Z</value>
      </time>
      <waveformID networkCode="NZ" stationCode="NNZ" locationCode="10" channelCode="HHZ"/>
      <phaseHint>P</phaseHint>
      <evaluationMode>automatic</evaluationMode>
      <creationInfo>
        <agencyID>GNS</agencyID>
        <author>scautopick@screplay1.gns.cri.nz</author>
        <creationTime>2011-01-26T02:52:15.958982Z</creationTime>
      </creationInfo>
    </pick>
    <pick publicID="20100225.040950.04-NZ.MSZ.10.HHZ">
      <time>
        <value>2010-02-25T04:09:50.048393Z</value>
      </time>
      <waveformID networkCode="NZ" stationCode="MSZ" locationCode="10" channelCode="HHZ"/>
      <phaseHint>P</phaseHint>
      <evaluationMode>automatic</evaluationMode>
      <creationInfo>
        <agencyID>GNS</agencyID>
        <author>scautopick@screplay1.gns.cri.nz</author>
        <creationTime>2011-01-26T02:52:16.017783Z</creationTime>
      </creationInfo>
    </pick>
    <pick publicID="20100225.040957.61-NZ.WHVZ.10.HHZ">
      <time>
        <value>2010-02-25T04:09:57.618392Z</value>
      </time>
      <waveformID networkCode="NZ" stationCode="WHVZ" locationCode="10" channelCode="HHZ"/>
      <phaseHint>P</phaseHint>
      <evaluationMode>automatic</evaluationMode>
      <creationInfo>
        <agencyID>GNS</agencyID>
        <author>scautopick@screplay1.gns.cri.nz</author>
        <creationTime>2011-01-26T02:52:16.088421Z</creationTime>
      </creationInfo>
    </pick>
    <pick publicID="20100225.041024.37-NZ.TSZ.10.HHZ">
      <time>
        <value>2010-02-25T04:10:24.378865Z</value>
      </time>
      <waveformID networkCode="NZ" stationCode="TSZ" locationCode="10" channelCode="HHZ"/>
      <phaseHint>P</phaseHint>
      <evaluationMode>automatic</evaluationMode>
      <creationInfo>
        <agencyID>GNS</agencyID>
        <author>scautopick@screplay1.gns.cri.nz</author>
        <creationTime>2011-01-26T02:52:16.873768Z</creationTime>
      </creationInfo>
    </pick>
    <pick publicID="20100225.041031.33-NZ.BFZ.10.HHZ">
      <time>
        <value>2010-02-25T04:10:31.338393Z</value>
      </time>
      <waveformID networkCode="NZ" stationCode="BFZ" locationCode="10" channelCode="HHZ"/>
      <phaseHint>P</phaseHint>
      <evaluationMode>automatic</evaluationMode>
      <creationInfo>
        <agencyID>GNS</agencyID>
        <author>scautopick@screplay1.gns.cri.nz</author>
        <creationTime>2011-01-26T02:52:17.138163Z</creationTime>
      </creationInfo>
    </pick>
    <pick publicID="20100225.041228.84-NZ.TSZ.10.HHZ">
      <time>
        <value>2010-02-25T04:12:28.848863Z</value>
      </time>
      <waveformID networkCode="NZ" stationCode="TSZ" locationCode="10" channelCode="HHZ"/>
      <phaseHint>P</phaseHint>
      <evaluationMode>automatic</evaluationMode>
      <creationInfo>
        <agencyID>GNS</agencyID>
        <author>scautopick@screplay1.gns.cri.nz</author>
        <creationTime>2011-01-26T02:52:18.589363Z</creationTime>
      </creationInfo>
    </pick>
    <pick publicID="20100225.041336.02-NZ.TSZ.10.HHZ">
      <time>
        <value>2010-02-25T04:13:36.028863Z</value>
      </time>
      <waveformID networkCode="NZ" stationCode="TSZ" locationCode="10" channelCode="HHZ"/>
      <phaseHint>P</phaseHint>
      <evaluationMode>automatic</evaluationMode>
      <creationInfo>
        <agencyID>GNS</agencyID>
        <author>scautopick@screplay1.gns.cri.nz</author>
        <creationTime>2011-01-26T02:52:19.217906Z</creationTime>
      </creationInfo>
    </pick>
    <pick publicID="20100225.041556.21-NZ.MWZ.10.HHZ">
      <time>
        <value>2010-02-25T04:15:56.218394Z</value>
      </time>
      <waveformID networkCode="NZ" stationCode="MWZ" locationCode="10" channelCode="HHZ"/>
      <phaseHint>P</phaseHint>
      <evaluationMode>automatic</evaluationMode>
      <creationInfo>
        <agencyID>GNS</agencyID>
        <author>scautopick@screplay1.gns.cri.nz</author>
        <creationTime>2011-01-26T02:52:20.442802Z</creationTime>
      </creationInfo>
    </pick>
    <pick publicID="20100225.041936.58-NZ.MSZ.10.HHZ">
      <time>
        <value>2010-02-25T04:19:36.588393Z</value>
      </time>
      <waveformID networkCode="NZ" stationCode="MSZ" locationCode="10" channelCode="HHZ"/>
      <phaseHint>P</phaseHint>
      <evaluationMode>automatic</evaluationMode>
      <creationInfo>
        <agencyID>GNS</agencyID>
        <author>scautopick@screplay1.gns.cri.nz</author>
        <creationTime>2011-01-26T02:52:22.191843Z</creationTime>
      </creationInfo>
    </pick>
    <pick publicID="20100225.041940.02-NZ.JCZ.10.HHZ">
      <time>
        <value>2010-02-25T04:19:40.028391Z</value>
      </time>
      <waveformID networkCode="NZ" stationCode="JCZ" locationCode="10" channelCode="HHZ"/>
      <phaseHint>P</phaseHint>
      <evaluationMode>automatic</evaluationMode>
      <creationInfo>
        <agencyID>GNS</agencyID>
        <author>scautopick@screplay1.gns.cri.nz</author>
        <creationTime>2011-01-26T02:52:22.220039Z</creationTime>
      </creationInfo>
    </pick>
    <pick publicID="20100225.041946.84-NZ.WKZ.10.HHZ">
      <time>
        <value>2010-02-25T04:19:46.849299Z</value>
      </time>
      <waveformID networkCode="NZ" stationCode="WKZ" locationCode="10" channelCode="HHZ"/>
      <phaseHint>P</phaseHint>
      <evaluationMode>automatic</evaluationMode>
      <creationInfo>
        <agencyID>GNS</agencyID>
        <author>scautopick@screplay1.gns.cri.nz</author>
        <creationTime>2011-01-26T02:52:22.286898Z</creationTime>
      </creationInfo>
    </pick>
    <pick publicID="20100225.042021.64-NZ.TUZ.10.HHZ">
      <time>
        <value>2010-02-25T04:20:21.648392Z</value>
      </time>
      <waveformID networkCode="NZ" stationCode="TUZ" locationCode="10" channelCode="HHZ"/>
      <phaseHint>P</phaseHint>
      <evaluationMode>automatic</evaluationMode>
      <creationInfo>
        <agencyID>GNS</agencyID>
        <author>scautopick@screplay1.gns.cri.nz</author>
        <creationTime>2011-01-26T02:52:22.977576Z</creationTime>
      </creationInfo>
    </pick>
    <pick publicID="20100225.042454.67-NZ.RPZ.10.HHZ">
      <time>
        <value>2010-02-25T04:24:54.678872Z</value>
      </time>
      <waveformID networkCode="NZ" stationCode="RPZ" locationCode="10" channelCode="HHZ"/>
      <phaseHint>P</phaseHint>
      <evaluationMode>automatic</evaluationMode>
      <creationInfo>
        <agencyID>GNS</agencyID>
        <author>scautopick@screplay1.gns.cri.nz</author>
        <creationTime>2011-01-26T02:52:25.236784Z</creationTime>
      </creationInfo>
    </pick>
    <pick publicID="20100225.042505.04-NZ.WIZ.10.HHZ">
      <time>
        <value>2010-02-25T04:25:05.048391Z</value>
      </time>
      <waveformID networkCode="NZ" stationCode="WIZ" locationCode="10" channelCode="HHZ"/>
      <phaseHint>P</phaseHint>
      <evaluationMode>automatic</evaluationMode>
      <creationInfo>
        <agencyID>GNS</agencyID>
        <author>scautopick@screplay1.gns.cri.nz</author>
        <creationTime>2011-01-26T02:52:25.347859Z</creationTime>
      </creationInfo>
    </pick>
    <pick publicID="20100225.043853.69-NZ.DCZ.10.HHZ">
      <time>
        <value>2010-02-25T04:38:53.698393Z</value>
      </time>
      <waveformID networkCode="NZ" stationCode="DCZ" locationCode="10" channelCode="HHZ"/>
      <phaseHint>P</phaseHint>
      <evaluationMode>automatic</evaluationMode>
      <creationInfo>
        <agencyID>GNS</agencyID>
        <author>scautopick@screplay1.gns.cri.nz</author>
        <creationTime>2011-01-26T02:52:32.862682Z</creationTime>
      </creationInfo>
    </pick>
    <pick publicID="20100225.043859.79-NZ.WHZ.10.HHZ">
      <time>
        <value>2010-02-25T04:38:59.790229Z</value>
      </time>
      <waveformID networkCode="NZ" stationCode="WHZ" locationCode="10" channelCode="HHZ"/>
      <phaseHint>P</phaseHint>
      <evaluationMode>automatic</evaluationMode>
      <creationInfo>
        <agencyID>GNS</agencyID>
        <author>scautopick@screplay1.gns.cri.nz</author>
        <creationTime>2011-01-26T02:52:32.909028Z</creationTime>
      </creationInfo>
    </pick>
    <pick publicID="20100225.043902.78-NZ.APZ.10.HHZ">
      <time>
        <value>2010-02-25T04:39:02.788393Z</value>
      </time>
      <waveformID networkCode="NZ" stationCode="APZ" locationCode="10" channelCode="HHZ"/>
      <phaseHint>P</phaseHint>
      <evaluationMode>automatic</evaluationMode>
      <creationInfo>
        <agencyID>GNS</agencyID>
        <author>scautopick@screplay1.gns.cri.nz</author>
        <creationTime>2011-01-26T02:52:32.964836Z</creationTime>
      </creationInfo>
    </pick>
    <pick publicID="20100225.043905.06-NZ.MLZ.10.HHZ">
      <time>
        <value>2010-02-25T04:39:05.068865Z</value>
      </time>
      <waveformID networkCode="NZ" stationCode="MLZ" locationCode="10" channelCode="HHZ"/>
      <phaseHint>P</phaseHint>
      <evaluationMode>automatic</evaluationMode>
      <creationInfo>
        <agencyID>GNS</agencyID>
        <author>scautopick@screplay1.gns.cri.nz</author>
        <creationTime>2011-01-26T02:52:32.992608Z</creationTime>
      </creationInfo>
    </pick>
    <pick publicID="20100225.043908.79-NZ.MSZ.10.HHZ">
      <time>
        <value>2010-02-25T04:39:08.798393Z</value>
      </time>
      <waveformID networkCode="NZ" stationCode="MSZ" locationCode="10" channelCode="HHZ"/>
      <phaseHint>P</phaseHint>
      <evaluationMode>automatic</evaluationMode>
      <creationInfo>
        <agencyID>GNS</agencyID>
        <author>scautopick@screplay1.gns.cri.nz</author>
        <creationTime>2011-01-26T02:52:33.011126Z</creationTime>
      </creationInfo>
    </pick>
    <pick publicID="20100225.043912.68-NZ.SYZ.10.HHZ">
      <time>
        <value>2010-02-25T04:39:12.688395Z</value>
      </time>
      <waveformID networkCode="NZ" stationCode="SYZ" locationCode="10" channelCode="HHZ"/>
      <phaseHint>P</phaseHint>
      <evaluationMode>automatic</evaluationMode>
      <creationInfo>
        <agencyID>GNS</agencyID>
        <author>scautopick@screplay1.gns.cri.nz</author>
        <creationTime>2011-01-26T02:52:33.071013Z</creationTime>
      </creationInfo>
    </pick>
    <pick publicID="20100225.043917.18-NZ.TUZ.10.HHZ">
      <time>
        <value>2010-02-25T04:39:17.188393Z</value>
      </time>
      <waveformID networkCode="NZ" stationCode="TUZ" locationCode="10" channelCode="HHZ"/>
      <phaseHint>P</phaseHint>
      <evaluationMode>automatic</evaluationMode>
      <creationInfo>
        <agencyID>GNS</agencyID>
        <author>scautopick@screplay1.gns.cri.nz</author>
        <creationTime>2011-01-26T02:52:33.138572Z</creationTime>
      </creationInfo>
    </pick>
    <pick publicID="20100225.043917.64-NZ.WKZ.10.HHZ">
      <time>
        <value>2010-02-25T04:39:17.649299Z</value>
      </time>
      <waveformID networkCode="NZ" stationCode="WKZ" locationCode="10" channelCode="HHZ"/>
      <phaseHint>P</phaseHint>
      <evaluationMode>automatic</evaluationMode>
      <creationInfo>
        <agencyID>GNS</agencyID>
        <author>scautopick@screplay1.gns.cri.nz</author>
        <creationTime>2011-01-26T02:52:33.157325Z</creationTime>
      </creationInfo>
    </pick>
    <pick publicID="20100225.043916.96-NZ.EAZ.10.HHZ">
      <time>
        <value>2010-02-25T04:39:16.968394Z</value>
      </time>
      <waveformID networkCode="NZ" stationCode="EAZ" locationCode="10" channelCode="HHZ"/>
      <phaseHint>P</phaseHint>
      <evaluationMode>automatic</evaluationMode>
      <creationInfo>
        <agencyID>GNS</agencyID>
        <author>scautopick@screplay1.gns.cri.nz</author>
        <creationTime>2011-01-26T02:52:33.167384Z</creationTime>
      </creationInfo>
    </pick>
    <pick publicID="20100225.043924.10-NZ.JCZ.10.HHZ">
      <time>
        <value>2010-02-25T04:39:24.108391Z</value>
      </time>
      <waveformID networkCode="NZ" stationCode="JCZ" locationCode="10" channelCode="HHZ"/>
      <phaseHint>P</phaseHint>
      <evaluationMode>automatic</evaluationMode>
      <creationInfo>
        <agencyID>GNS</agencyID>
        <author>scautopick@screplay1.gns.cri.nz</author>
        <creationTime>2011-01-26T02:52:33.398398Z</creationTime>
      </creationInfo>
    </pick>
    <pick publicID="20100225.043928.36-NZ.OPZ.10.HHZ">
      <time>
        <value>2010-02-25T04:39:28.368388Z</value>
      </time>
      <waveformID networkCode="NZ" stationCode="OPZ" locationCode="10" channelCode="HHZ"/>
      <phaseHint>P</phaseHint>
      <evaluationMode>automatic</evaluationMode>
      <creationInfo>
        <agencyID>GNS</agencyID>
        <author>scautopick@screplay1.gns.cri.nz</author>
        <creationTime>2011-01-26T02:52:33.462048Z</creationTime>
      </creationInfo>
    </pick>
    <pick publicID="20100225.043929.12-NZ.ODZ.10.HHZ">
      <time>
        <value>2010-02-25T04:39:29.128402Z</value>
      </time>
      <waveformID networkCode="NZ" stationCode="ODZ" locationCode="10" channelCode="HHZ"/>
      <phaseHint>P</phaseHint>
      <evaluationMode>automatic</evaluationMode>
      <creationInfo>
        <agencyID>GNS</agencyID>
        <author>scautopick@screplay1.gns.cri.nz</author>
        <creationTime>2011-01-26T02:52:33.47901Z</creationTime>
      </creationInfo>
    </pick>
    <pick publicID="20100225.043928.84-NZ.LBZ.10.HHZ">
      <time>
        <value>2010-02-25T04:39:28.846245Z</value>
      </time>
      <waveformID networkCode="NZ" stationCode="LBZ" locationCode="10" channelCode="HHZ"/>
      <phaseHint>P</phaseHint>
      <evaluationMode>automatic</evaluationMode>
      <creationInfo>
        <agencyID>GNS</agencyID>
        <author>scautopick@screplay1.gns.cri.nz</author>
        <creationTime>2011-01-26T02:52:33.659148Z</creationTime>
      </creationInfo>
    </pick>
    <pick publicID="20100225.043937.89-NZ.FOZ.10.HHZ">
      <time>
        <value>2010-02-25T04:39:37.89839Z</value>
      </time>
      <waveformID networkCode="NZ" stationCode="FOZ" locationCode="10" channelCode="HHZ"/>
      <phaseHint>P</phaseHint>
      <evaluationMode>automatic</evaluationMode>
      <creationInfo>
        <agencyID>GNS</agencyID>
        <author>scautopick@screplay1.gns.cri.nz</author>
        <creationTime>2011-01-26T02:52:33.981379Z</creationTime>
      </creationInfo>
    </pick>
    <pick publicID="20100225.043940.37-NZ.RPZ.10.HHZ">
      <time>
        <value>2010-02-25T04:39:40.378871Z</value>
      </time>
      <waveformID networkCode="NZ" stationCode="RPZ" locationCode="10" channelCode="HHZ"/>
      <phaseHint>P</phaseHint>
      <evaluationMode>automatic</evaluationMode>
      <creationInfo>
        <agencyID>GNS</agencyID>
        <author>scautopick@screplay1.gns.cri.nz</author>
        <creationTime>2011-01-26T02:52:34.011954Z</creationTime>
      </creationInfo>
    </pick>
    <pick publicID="20100225.043948.26-NZ.WVZ.10.HHZ">
      <time>
        <value>2010-02-25T04:39:48.262863Z</value>
      </time>
      <waveformID networkCode="NZ" stationCode="WVZ" locationCode="10" channelCode="HHZ"/>
      <phaseHint>P</phaseHint>
      <evaluationMode>automatic</evaluationMode>
      <creationInfo>
        <agencyID>GNS</agencyID>
        <author>scautopick@screplay1.gns.cri.nz</author>
        <creationTime>2011-01-26T02:52:34.314651Z</creationTime>
      </creationInfo>
    </pick>
    <pick publicID="20100225.043950.81-NZ.OXZ.10.HHZ">
      <time>
        <value>2010-02-25T04:39:50.818382Z</value>
      </time>
      <waveformID networkCode="NZ" stationCode="OXZ" locationCode="10" channelCode="HHZ"/>
      <phaseHint>P</phaseHint>
      <evaluationMode>automatic</evaluationMode>
      <creationInfo>
        <agencyID>GNS</agencyID>
        <author>scautopick@screplay1.gns.cri.nz</author>
        <creationTime>2011-01-26T02:52:34.340706Z</creationTime>
      </creationInfo>
    </pick>
    <pick publicID="20100225.043955.15-NZ.MQZ.10.HHZ">
      <time>
        <value>2010-02-25T04:39:55.158385Z</value>
      </time>
      <waveformID networkCode="NZ" stationCode="MQZ" locationCode="10" channelCode="HHZ"/>
      <phaseHint>P</phaseHint>
      <evaluationMode>automatic</evaluationMode>
      <creationInfo>
        <agencyID>GNS</agencyID>
        <author>scautopick@screplay1.gns.cri.nz</author>
        <creationTime>2011-01-26T02:52:34.394403Z</creationTime>
      </creationInfo>
    </pick>
    <pick publicID="20100225.043958.93-NZ.LTZ.10.HHZ">
      <time>
        <value>2010-02-25T04:39:58.936854Z</value>
      </time>
      <waveformID networkCode="NZ" stationCode="LTZ" locationCode="10" channelCode="HHZ"/>
      <phaseHint>P</phaseHint>
      <evaluationMode>automatic</evaluationMode>
      <creationInfo>
        <agencyID>GNS</agencyID>
        <author>scautopick@screplay1.gns.cri.nz</author>
        <creationTime>2011-01-26T02:52:34.673455Z</creationTime>
      </creationInfo>
    </pick>
    <pick publicID="20100225.044009.32-NZ.CRLZ.10.HHZ">
      <time>
        <value>2010-02-25T04:40:09.326867Z</value>
      </time>
      <waveformID networkCode="NZ" stationCode="CRLZ" locationCode="10" channelCode="HHZ"/>
      <phaseHint>P</phaseHint>
      <evaluationMode>automatic</evaluationMode>
      <creationInfo>
        <agencyID>GNS</agencyID>
        <author>scautopick@screplay1.gns.cri.nz</author>
        <creationTime>2011-01-26T02:52:34.843318Z</creationTime>
      </creationInfo>
    </pick>
    <pick publicID="20100225.044010.51-NZ.DSZ.10.HHZ">
      <time>
        <value>2010-02-25T04:40:10.518387Z</value>
      </time>
      <waveformID networkCode="NZ" stationCode="DSZ" locationCode="10" channelCode="HHZ"/>
      <phaseHint>P</phaseHint>
      <evaluationMode>automatic</evaluationMode>
      <creationInfo>
        <agencyID>GNS</agencyID>
        <author>scautopick@screplay1.gns.cri.nz</author>
        <creationTime>2011-01-26T02:52:34.854045Z</creationTime>
      </creationInfo>
    </pick>
    <pick publicID="20100225.044015.44-NZ.THZ.10.HHZ">
      <time>
        <value>2010-02-25T04:40:15.442873Z</value>
      </time>
      <waveformID networkCode="NZ" stationCode="THZ" locationCode="10" channelCode="HHZ"/>
      <phaseHint>P</phaseHint>
      <evaluationMode>automatic</evaluationMode>
      <creationInfo>
        <agencyID>GNS</agencyID>
        <author>scautopick@screplay1.gns.cri.nz</author>
        <creationTime>2011-01-26T02:52:35.055368Z</creationTime>
      </creationInfo>
    </pick>
    <pick publicID="20100225.044020.78-NZ.KHZ.10.HHZ">
      <time>
        <value>2010-02-25T04:40:20.786855Z</value>
      </time>
      <waveformID networkCode="NZ" stationCode="KHZ" locationCode="10" channelCode="HHZ"/>
      <phaseHint>P</phaseHint>
      <evaluationMode>automatic</evaluationMode>
      <creationInfo>
        <agencyID>GNS</agencyID>
        <author>scautopick@screplay1.gns.cri.nz</author>
        <creationTime>2011-01-26T02:52:35.104496Z</creationTime>
      </creationInfo>
    </pick>
    <pick publicID="20100225.044022.45-NZ.QRZ.10.HHZ">
      <time>
        <value>2010-02-25T04:40:22.458381Z</value>
      </time>
      <waveformID networkCode="NZ" stationCode="QRZ" locationCode="10" channelCode="HHZ"/>
      <phaseHint>P</phaseHint>
      <evaluationMode>automatic</evaluationMode>
      <creationInfo>
