<?xml version="1.0" encoding="UTF-8"?>
<seiscomp xmlns="http://geofon.gfz-potsdam.de/ns/seiscomp3-schema/0.6" version="0.6">
  <EventParameters>
    <pick publicID="20120730.225151.40-NZ.CMWZ.10.EHZ">
      <time>
        <value>2012-07-30T22:51:51.40839Z</value>
      </time>
      <waveformID networkCode="NZ" stationCode="CMWZ" locationCode="10" channelCode="EHZ"/>
      <methodID>Trigger</methodID>
      <phaseHint>P</phaseHint>
      <evaluationMode>automatic</evaluationMode>
      <creationInfo>
        <agencyID>WEL(GNS_Primary)</agencyID>
        <author>scautopick@scz-ak</author>
        <creationTime>2012-07-30T22:51:54.214762Z</creationTime>
      </creationInfo>
    </pick>
    <pick publicID="20120730.225153.92-NZ.BSWZ.10.EHZ">
      <time>
        <value>2012-07-30T22:51:53.928394Z</value>
      </time>
      <waveformID networkCode="NZ" stationCode="BSWZ" locationCode="10" channelCode="EHZ"/>
      <methodID>Trigger</methodID>
      <phaseHint>P</phaseHint>
      <evaluationMode>automatic</evaluationMode>
      <creationInfo>
        <agencyID>WEL(GNS_Primary)</agencyID>
        <author>scautopick@scz-ak</author>
        <creationTime>2012-07-30T22:51:58.342834Z</creationTime>
      </creationInfo>
    </pick>
    <pick publicID="20120730.225157.10-NZ.TUWZ.10.EHZ">
      <time>
        <value>2012-07-30T22:51:57.108391Z</value>
      </time>
      <waveformID networkCode="NZ" stationCode="TUWZ" locationCode="10" channelCode="EHZ"/>
      <methodID>Trigger</methodID>
      <phaseHint>P</phaseHint>
      <evaluationMode>automatic</evaluationMode>
      <creationInfo>
        <agencyID>WEL(GNS_Primary)</agencyID>
        <author>scautopick@scz-ak</author>
        <creationTime>2012-07-30T22:51:59.241293Z</creationTime>
      </creationInfo>
    </pick>
    <pick publicID="20120730.225157.33-NZ.BWRS.20.BNZ">
      <time>
        <value>2012-07-30T22:51:57.33Z</value>
      </time>
      <waveformID networkCode="NZ" stationCode="BWRS" locationCode="20" channelCode="BNZ"/>
      <methodID>Trigger</methodID>
      <phaseHint>P</phaseHint>
      <evaluationMode>automatic</evaluationMode>
      <creationInfo>
        <agencyID>WEL(GNS_Primary)</agencyID>
        <author>scautopick@scz-ak</author>
        <creationTime>2012-07-30T22:52:07.384304Z</creationTime>
      </creationInfo>
    </pick>
    <pick publicID="20120730.225200.29-NZ.TCW.10.EHZ">
      <time>
        <value>2012-07-30T22:52:00.298396Z</value>
      </time>
      <waveformID networkCode="NZ" stationCode="TCW" locationCode="10" channelCode="EHZ"/>
      <methodID>Trigger</methodID>
      <phaseHint>P</phaseHint>
      <evaluationMode>automatic</evaluationMode>
      <creationInfo>
        <agencyID>WEL(GNS_Primary)</agencyID>
        <author>scautopick@scz-ak</author>
        <creationTime>2012-07-30T22:52:03.363978Z</creationTime>
      </creationInfo>
    </pick>
    <pick publicID="20120730.225202.16-NZ.BHW.10.EHZ">
      <time>
        <value>2012-07-30T22:52:02.168393Z</value>
      </time>
      <waveformID networkCode="NZ" stationCode="BHW" locationCode="10" channelCode="EHZ"/>
      <methodID>Trigger</methodID>
      <phaseHint>P</phaseHint>
      <evaluationMode>automatic</evaluationMode>
      <creationInfo>
        <agencyID>WEL(GNS_Primary)</agencyID>
        <author>scautopick@scz-ak</author>
        <creationTime>2012-07-30T22:52:06.176623Z</creationTime>
      </creationInfo>
    </pick>
    <pick publicID="20120730.225203.02-NZ.WEL.10.HHZ">
      <time>
        <value>2012-07-30T22:52:03.02847Z</value>
      </time>
      <waveformID networkCode="NZ" stationCode="WEL" locationCode="10" channelCode="HHZ"/>
      <methodID>Trigger</methodID>
      <phaseHint>P</phaseHint>
      <evaluationMode>automatic</evaluationMode>
      <creationInfo>
        <agencyID>WEL(GNS_Primary)</agencyID>
        <author>scautopick@scz-ak</author>
        <creationTime>2012-07-30T22:52:36.431903Z</creationTime>
      </creationInfo>
    </pick>
    <pick publicID="20120730.225204.30-NZ.NEWS.20.BNZ">
      <time>
        <value>2012-07-30T22:52:04.309999Z</value>
      </time>
      <waveformID networkCode="NZ" stationCode="NEWS" locationCode="20" channelCode="BNZ"/>
      <methodID>Trigger</methodID>
      <phaseHint>P</phaseHint>
      <evaluationMode>automatic</evaluationMode>
      <creationInfo>
        <agencyID>WEL(GNS_Primary)</agencyID>
        <author>scautopick@scz-ak</author>
        <creationTime>2012-07-30T22:52:09.796074Z</creationTime>
      </creationInfo>
    </pick>
    <pick publicID="20120730.225209.74-NZ.LRSS.20.BNZ">
      <time>
        <value>2012-07-30T22:52:09.744027Z</value>
      </time>
      <waveformID networkCode="NZ" stationCode="LRSS" locationCode="20" channelCode="BNZ"/>
      <methodID>Trigger</methodID>
      <phaseHint>P</phaseHint>
      <evaluationMode>automatic</evaluationMode>
      <creationInfo>
        <agencyID>WEL(GNS_Primary)</agencyID>
        <author>scautopick@scz-ak</author>
        <creationTime>2012-07-30T22:52:15.32499Z</creationTime>
      </creationInfo>
    </pick>
    <pick publicID="20120730.225204.33-NZ.KHZ.10.HHZ">
      <time>
        <value>2012-07-30T22:52:04.338391Z</value>
      </time>
      <waveformID networkCode="NZ" stationCode="KHZ" locationCode="10" channelCode="HHZ"/>
      <methodID>Trigger</methodID>
      <phaseHint>P</phaseHint>
      <evaluationMode>automatic</evaluationMode>
      <creationInfo>
        <agencyID>WEL(GNS_Primary)</agencyID>
        <author>scautopick@scz-ak</author>
        <creationTime>2012-07-30T22:52:09.997261Z</creationTime>
      </creationInfo>
    </pick>
    <pick publicID="20120730.225205.81-NZ.NNZ.10.HHZ">
      <time>
        <value>2012-07-30T22:52:05.818393Z</value>
      </time>
      <waveformID networkCode="NZ" stationCode="NNZ" locationCode="10" channelCode="HHZ"/>
      <methodID>Trigger</methodID>
      <phaseHint>P</phaseHint>
      <evaluationMode>automatic</evaluationMode>
      <creationInfo>
        <agencyID>WEL(GNS_Primary)</agencyID>
        <author>scautopick@scz-ak</author>
        <creationTime>2012-07-30T22:52:11.807011Z</creationTime>
      </creationInfo>
    </pick>
    <pick publicID="20120730.225205.04-NZ.PLWZ.10.EHZ">
      <time>
        <value>2012-07-30T22:52:05.048394Z</value>
      </time>
      <waveformID networkCode="NZ" stationCode="PLWZ" locationCode="10" channelCode="EHZ"/>
      <methodID>Trigger</methodID>
      <phaseHint>P</phaseHint>
      <evaluationMode>automatic</evaluationMode>
      <creationInfo>
        <agencyID>WEL(GNS_Primary)</agencyID>
        <author>scautopick@scz-ak</author>
        <creationTime>2012-07-30T22:52:06.179175Z</creationTime>
      </creationInfo>
    </pick>
    <pick publicID="20120730.225205.93-NZ.MSWZ.10.EHZ">
      <time>
        <value>2012-07-30T22:52:05.938392Z</value>
      </time>
      <waveformID networkCode="NZ" stationCode="MSWZ" locationCode="10" channelCode="EHZ"/>
      <methodID>Trigger</methodID>
      <phaseHint>P</phaseHint>
      <evaluationMode>automatic</evaluationMode>
      <creationInfo>
        <agencyID>WEL(GNS_Primary)</agencyID>
        <author>scautopick@scz-ak</author>
        <creationTime>2012-07-30T22:52:07.185012Z</creationTime>
      </creationInfo>
    </pick>
    <pick publicID="20120730.225207.60-NZ.CAW.10.EHZ">
      <time>
        <value>2012-07-30T22:52:07.608391Z</value>
      </time>
      <waveformID networkCode="NZ" stationCode="CAW" locationCode="10" channelCode="EHZ"/>
      <methodID>Trigger</methodID>
      <phaseHint>P</phaseHint>
      <evaluationMode>automatic</evaluationMode>
      <creationInfo>
        <agencyID>WEL(GNS_Primary)</agencyID>
        <author>scautopick@scz-ak</author>
        <creationTime>2012-07-30T22:52:08.288363Z</creationTime>
      </creationInfo>
    </pick>
    <pick publicID="20120730.225207.07-NZ.THZ.10.HHZ">
      <time>
        <value>2012-07-30T22:52:07.072867Z</value>
      </time>
      <waveformID networkCode="NZ" stationCode="THZ" locationCode="10" channelCode="HHZ"/>
      <methodID>Trigger</methodID>
      <phaseHint>P</phaseHint>
      <evaluationMode>automatic</evaluationMode>
      <creationInfo>
        <agencyID>WEL(GNS_Primary)</agencyID>
        <author>scautopick@scz-ak</author>
        <creationTime>2012-07-30T22:52:14.520889Z</creationTime>
      </creationInfo>
    </pick>
    <pick publicID="20120730.225208.41-NZ.DUWZ.10.EHZ">
      <time>
        <value>2012-07-30T22:52:08.418327Z</value>
      </time>
      <waveformID networkCode="NZ" stationCode="DUWZ" locationCode="10" channelCode="EHZ"/>
      <methodID>Trigger</methodID>
      <phaseHint>P</phaseHint>
      <evaluationMode>automatic</evaluationMode>
      <creationInfo>
        <agencyID>WEL(GNS_Primary)</agencyID>
        <author>scautopick@scz-ak</author>
        <creationTime>2012-07-30T22:52:22.662715Z</creationTime>
      </creationInfo>
    </pick>
    <pick publicID="20120730.225207.69-NZ.PAWZ.10.EHZ">
      <time>
        <value>2012-07-30T22:52:07.69839Z</value>
      </time>
      <waveformID networkCode="NZ" stationCode="PAWZ" locationCode="10" channelCode="EHZ"/>
      <methodID>Trigger</methodID>
      <phaseHint>P</phaseHint>
      <evaluationMode>automatic</evaluationMode>
      <creationInfo>
        <agencyID>WEL(GNS_Primary)</agencyID>
        <author>scautopick@scz-ak</author>
        <creationTime>2012-07-30T22:52:14.31988Z</creationTime>
      </creationInfo>
    </pick>
    <pick publicID="20120730.225209.41-NZ.KIW.10.EHZ">
      <time>
        <value>2012-07-30T22:52:09.418395Z</value>
      </time>
      <waveformID networkCode="NZ" stationCode="KIW" locationCode="10" channelCode="EHZ"/>
      <methodID>Trigger</methodID>
      <phaseHint>P</phaseHint>
      <evaluationMode>automatic</evaluationMode>
      <creationInfo>
        <agencyID>WEL(GNS_Primary)</agencyID>
        <author>scautopick@scz-ak</author>
        <creationTime>2012-07-30T22:52:12.109614Z</creationTime>
      </creationInfo>
    </pick>
    <pick publicID="20120730.225209.78-NZ.MTW.10.EHZ">
      <time>
        <value>2012-07-30T22:52:09.788393Z</value>
      </time>
      <waveformID networkCode="NZ" stationCode="MTW" locationCode="10" channelCode="EHZ"/>
      <methodID>Trigger</methodID>
      <phaseHint>P</phaseHint>
      <evaluationMode>automatic</evaluationMode>
      <creationInfo>
        <agencyID>WEL(GNS_Primary)</agencyID>
        <author>scautopick@scz-ak</author>
        <creationTime>2012-07-30T22:52:14.222338Z</creationTime>
      </creationInfo>
    </pick>
    <pick publicID="20120730.225211.41-NZ.OGWZ.10.EHZ">
      <time>
        <value>2012-07-30T22:52:11.418393Z</value>
      </time>
      <waveformID networkCode="NZ" stationCode="OGWZ" locationCode="10" channelCode="EHZ"/>
      <methodID>Trigger</methodID>
      <phaseHint>P</phaseHint>
      <evaluationMode>automatic</evaluationMode>
      <creationInfo>
        <agencyID>WEL(GNS_Primary)</agencyID>
        <author>scautopick@scz-ak</author>
        <creationTime>2012-07-30T22:52:14.118439Z</creationTime>
      </creationInfo>
    </pick>
    <pick publicID="20120730.225212.81-NZ.HOWZ.10.EHZ">
      <time>
        <value>2012-07-30T22:52:12.818395Z</value>
      </time>
      <waveformID networkCode="NZ" stationCode="HOWZ" locationCode="10" channelCode="EHZ"/>
      <methodID>Trigger</methodID>
      <phaseHint>P</phaseHint>
      <evaluationMode>automatic</evaluationMode>
      <creationInfo>
        <agencyID>WEL(GNS_Primary)</agencyID>
        <author>scautopick@scz-ak</author>
        <creationTime>2012-07-30T22:52:17.13472Z</creationTime>
      </creationInfo>
    </pick>
    <pick publicID="20120730.225213.46-NZ.TMWZ.10.EHZ">
      <time>
        <value>2012-07-30T22:52:13.468393Z</value>
      </time>
      <waveformID networkCode="NZ" stationCode="TMWZ" locationCode="10" channelCode="EHZ"/>
      <methodID>Trigger</methodID>
      <phaseHint>P</phaseHint>
      <evaluationMode>automatic</evaluationMode>
      <creationInfo>
        <agencyID>WEL(GNS_Primary)</agencyID>
        <author>scautopick@scz-ak</author>
        <creationTime>2012-07-30T22:52:19.15212Z</creationTime>
      </creationInfo>
    </pick>
    <pick publicID="20120730.225215.40-NZ.MRZ.10.HHZ">
      <time>
        <value>2012-07-30T22:52:15.408394Z</value>
      </time>
      <waveformID networkCode="NZ" stationCode="MRZ" locationCode="10" channelCode="HHZ"/>
      <methodID>Trigger</methodID>
      <phaseHint>P</phaseHint>
      <evaluationMode>automatic</evaluationMode>
      <creationInfo>
        <agencyID>WEL(GNS_Primary)</agencyID>
        <author>scautopick@scz-ak</author>
        <creationTime>2012-07-30T22:52:27.080695Z</creationTime>
      </creationInfo>
    </pick>
    <pick publicID="20120730.225217.92-NZ.QRZ.10.HHZ">
      <time>
        <value>2012-07-30T22:52:17.928371Z</value>
      </time>
      <waveformID networkCode="NZ" stationCode="QRZ" locationCode="10" channelCode="HHZ"/>
      <methodID>Trigger</methodID>
      <phaseHint>P</phaseHint>
      <evaluationMode>automatic</evaluationMode>
      <creationInfo>
        <agencyID>WEL(GNS_Primary)</agencyID>
        <author>scautopick@scz-ak</author>
        <creationTime>2012-07-30T22:52:20.554195Z</creationTime>
      </creationInfo>
    </pick>
    <pick publicID="20120730.225218.24-NZ.LTZ.10.HHZ">
      <time>
        <value>2012-07-30T22:52:18.246866Z</value>
      </time>
      <waveformID networkCode="NZ" stationCode="LTZ" locationCode="10" channelCode="HHZ"/>
      <methodID>Trigger</methodID>
      <phaseHint>P</phaseHint>
      <evaluationMode>automatic</evaluationMode>
      <creationInfo>
        <agencyID>WEL(GNS_Primary)</agencyID>
        <author>scautopick@scz-ak</author>
        <creationTime>2012-07-30T22:52:26.07564Z</creationTime>
      </creationInfo>
    </pick>
    <pick publicID="20120730.225220.90-NZ.DSZ.10.HHZ">
      <time>
        <value>2012-07-30T22:52:20.90839Z</value>
      </time>
      <waveformID networkCode="NZ" stationCode="DSZ" locationCode="10" channelCode="HHZ"/>
      <methodID>Trigger</methodID>
      <phaseHint>P</phaseHint>
      <evaluationMode>automatic</evaluationMode>
      <creationInfo>
        <agencyID>WEL(GNS_Primary)</agencyID>
        <author>scautopick@scz-ak</author>
        <creationTime>2012-07-30T22:52:28.18756Z</creationTime>
      </creationInfo>
    </pick>
    <pick publicID="20120730.225239.03-NZ.BHHZ.10.EHZ">
      <time>
        <value>2012-07-30T22:52:39.038393Z</value>
      </time>
      <waveformID networkCode="NZ" stationCode="BHHZ" locationCode="10" channelCode="EHZ"/>
      <methodID>Trigger</methodID>
      <phaseHint>P</phaseHint>
      <evaluationMode>automatic</evaluationMode>
      <creationInfo>
        <agencyID>WEL(GNS_Primary)</agencyID>
        <author>scautopick@scz-ak</author>
        <creationTime>2012-07-30T22:52:46.294327Z</creationTime>
      </creationInfo>
    </pick>
    <pick publicID="20120730.225246.67-NZ.SNGZ.10.EHZ">
      <time>
        <value>2012-07-30T22:52:46.678392Z</value>
      </time>
      <waveformID networkCode="NZ" stationCode="SNGZ" locationCode="10" channelCode="EHZ"/>
      <methodID>Trigger</methodID>
      <phaseHint>P</phaseHint>
      <evaluationMode>automatic</evaluationMode>
      <creationInfo>
        <agencyID>WEL(GNS_Primary)</agencyID>
        <author>scautopick@scz-ak</author>
        <creationTime>2012-07-30T22:52:48.310618Z</creationTime>
      </creationInfo>
    </pick>
    <amplitude publicID="Amplitude#20120730225300.1078.405078">
      <type>ML</type>
      <amplitude>
        <value>0.23941721</value>
        <lowerUncertainty>0.0077207469</lowerUncertainty>
        <upperUncertainty>0.0077207469</upperUncertainty>
      </amplitude>
      <timeWindow>
        <reference>2012-07-30T22:52:14.608392Z</reference>
        <begin>-0.88</begin>
        <end>0.880001</end>
      </timeWindow>
      <pickID>20120730.225202.16-NZ.BHW.10.EHZ</pickID>
      <waveformID networkCode="NZ" stationCode="BHW" locationCode="10" channelCode="EH"/>
      <creationInfo>
        <agencyID>WEL(GNS_Primary)</agencyID>
        <author>scamp@scz-ak</author>
        <creationTime>2012-07-30T22:53:00.107914Z</creationTime>
      </creationInfo>
    </amplitude>
    <amplitude publicID="Amplitude#20120730225259.105538.405076">
      <type>MLv</type>
      <amplitude>
        <value>0.34179592</value>
      </amplitude>
      <timeWindow>
        <reference>2012-07-30T22:52:03.078392Z</reference>
        <begin>0</begin>
        <end>0</end>
      </timeWindow>
      <snr>6.2087302</snr>
      <pickID>20120730.225202.16-NZ.BHW.10.EHZ</pickID>
      <waveformID networkCode="NZ" stationCode="BHW" locationCode="10" channelCode="EHZ"/>
      <creationInfo>
        <agencyID>WEL(GNS_Primary)</agencyID>
        <author>scamp@scz-ak</author>
        <creationTime>2012-07-30T22:52:59.105635Z</creationTime>
      </creationInfo>
    </amplitude>
    <amplitude publicID="Amplitude#20120730225241.118565.405067">
      <type>ML</type>
      <amplitude>
        <value>0.98006194</value>
        <lowerUncertainty>0.11805385</lowerUncertainty>
        <upperUncertainty>0.11805385</upperUncertainty>
      </amplitude>
      <timeWindow>
        <reference>2012-07-30T22:51:59.163393Z</reference>
        <begin>-0.065</begin>
        <end>0.065</end>
      </timeWindow>
      <pickID>20120730.225153.92-NZ.BSWZ.10.EHZ</pickID>
      <waveformID networkCode="NZ" stationCode="BSWZ" locationCode="10" channelCode="EH"/>
      <creationInfo>
        <agencyID>WEL(GNS_Primary)</agencyID>
        <author>scamp@scz-ak</author>
        <creationTime>2012-07-30T22:52:41.118627Z</creationTime>
      </creationInfo>
    </amplitude>
    <amplitude publicID="Amplitude#20120730225241.11226.405065">
      <type>MLv</type>
      <amplitude>
        <value>0.57513219</value>
      </amplitude>
      <timeWindow>
        <reference>2012-07-30T22:51:58.318394Z</reference>
        <begin>0</begin>
        <end>0</end>
      </timeWindow>
      <snr>10.851653</snr>
      <pickID>20120730.225153.92-NZ.BSWZ.10.EHZ</pickID>
      <waveformID networkCode="NZ" stationCode="BSWZ" locationCode="10" channelCode="EHZ"/>
      <creationInfo>
        <agencyID>WEL(GNS_Primary)</agencyID>
        <author>scamp@scz-ak</author>
        <creationTime>2012-07-30T22:52:41.112343Z</creationTime>
      </creationInfo>
    </amplitude>
    <amplitude publicID="Amplitude#20120730225241.094599.405061">
      <type>ML</type>
      <amplitude>
        <value>7.7707383</value>
        <lowerUncertainty>1.4635773</lowerUncertainty>
        <upperUncertainty>1.4635773</upperUncertainty>
      </amplitude>
      <timeWindow>
        <reference>2012-07-30T22:51:55.00839Z</reference>
        <begin>-0.31</begin>
        <end>0.310001</end>
      </timeWindow>
      <pickID>20120730.225151.40-NZ.CMWZ.10.EHZ</pickID>
      <waveformID networkCode="NZ" stationCode="CMWZ" locationCode="10" channelCode="EH"/>
      <creationInfo>
        <agencyID>WEL(GNS_Primary)</agencyID>
        <author>scamp@scz-ak</author>
        <creationTime>2012-07-30T22:52:41.094674Z</creationTime>
      </creationInfo>
    </amplitude>
    <amplitude publicID="Amplitude#20120730225241.100202.405063">
      <type>MLv</type>
      <amplitude>
        <value>6.2704685</value>
      </amplitude>
      <timeWindow>
        <reference>2012-07-30T22:51:54.688391Z</reference>
        <begin>0</begin>
        <end>0</end>
      </timeWindow>
      <snr>40.140818</snr>
      <pickID>20120730.225151.40-NZ.CMWZ.10.EHZ</pickID>
      <waveformID networkCode="NZ" stationCode="CMWZ" locationCode="10" channelCode="EHZ"/>
      <creationInfo>
        <agencyID>WEL(GNS_Primary)</agencyID>
        <author>scamp@scz-ak</author>
        <creationTime>2012-07-30T22:52:41.100266Z</creationTime>
      </creationInfo>
    </amplitude>
    <amplitude publicID="Amplitude#20120730225247.174311.405072">
      <type>ML</type>
